NESS                    
1 58020U 23155E   26068.76452457  .00019469  00000+0  74047-3 0  9996
2 58020  97.5941 152.6141 0006891 179.8776 180.2465 15.26794015133307
STARLINK-31938          
1 59865U 24098H   26068.58644927  .00005385  00000+0  20509-3 0  9992
2 59865  43.0016 278.2884 0002368 258.0482 102.0104 15.27575057101831
